     3.00           N: GNSS NAV DATA    E: Galileo          RINEX VERSION / TYPE
PREC2NAV                                20121215 063257 UTC PGM / RUN BY / DATE 
SOURCE: data/tum%W%D.sp3                                    COMMENT             
                                                            END OF HEADER       
E11 2012 10 31  0  0  0  .123032810488E-02  .828191743590E-10  .000000000000E+00
      .100000000000E+01  .271754988335E+02  .353557721391E-08  .211840525242E+01
      .132031552546E-05  .146597366725E-03  .410773566721E-05  .544059733871E+04
      .259200000000E+06  .109575467081E-06  .144106271509E+01  .126239972684E-06
      .955877001391E+00  .249878881437E+03 -.495567559202E+01 -.567530761998E-08
      .349347752328E-09  .000000000000E+00  .171200000000E+04  .000000000000E+00
      .240000000000E+01  .000000000000E+00  .000000000000E+00  .000000000000E+00
      .262800000000E+06  .000000000000E+00
E12 2012 10 31  0  0  0  .399969675160E-03  .852529435897E-10  .000000000000E+00
      .100000000000E+01  .252713914806E+02  .369099312640E-08  .127781231556E+01
      .118183975314E-05  .351078107869E-04  .408694544252E-05  .544059440029E+04
      .259200000000E+06  .137509976164E-06  .144103581828E+01 -.213466154209E-07
      .955887899370E+00  .251254292894E+03 -.341141701495E+01 -.587245060420E-08
      .452748900321E-09  .000000000000E+00  .171200000000E+04  .000000000000E+00
      .240000000000E+01  .000000000000E+00  .000000000000E+00  .000000000000E+00
      .262800000000E+06  .000000000000E+00
E11 2012 10 31  2  0  0  .123092383144E-02  .827068743590E-10  .000000000000E+00
      .200000000000E+01  .263551277782E+02  .359767450508E-08  .301185673172E+01
      .127707812422E-05  .146672577231E-03  .416686317715E-05  .544059707074E+04
      .266400000000E+06 -.202179282751E-07  .144102084750E+01  .172220480659E-07
      .955879132151E+00  .248971055867E+03 -.495649114473E+01 -.578071106887E-08
      .362059305059E-09  .000000000000E+00  .171200000000E+04  .000000000000E+00
      .240000000000E+01  .000000000000E+00  .000000000000E+00  .000000000000E+00
      .270000000000E+06  .000000000000E+00
E12 2012 10 31  2  0  0  .400582996560E-03  .851411179487E-10  .000000000000E+00
      .200000000000E+01  .262476126074E+02  .363513313748E-08  .216681799933E+01
      .121569115446E-05  .351453785059E-04  .405816729625E-05  .544059465138E+04
      .266400000000E+06 -.951979060474E-08  .144099480244E+01 -.312390965172E-07
      .955890721550E+00  .250630131474E+03 -.340778585091E+01 -.580752309940E-08
      .342891158184E-09  .000000000000E+00  .171200000000E+04  .000000000000E+00
      .240000000000E+01  .000000000000E+00  .000000000000E+00  .000000000000E+00
      .270000000000E+06  .000000000000E+00
E11 2012 10 31  4  0  0  .123151926296E-02  .826949666667E-10  .000000000000E+00
      .300000000000E+01  .270182510684E+02  .361256623957E-08 -.237895961963E+01
      .129262931181E-05  .146638497079E-03  .422232789659E-05  .544059711175E+04
      .273600000000E+06 -.496962892758E-08  .144097961721E+01 -.467401993057E-07
      .955881513295E+00  .248720028289E+03  .132696073419E+01 -.578604275448E-08
      .304487941480E-09  .000000000000E+00  .171200000000E+04  .000000000000E+00
      .240000000000E+01  .000000000000E+00  .000000000000E+00  .000000000000E+00
      .277200000000E+06  .000000000000E+00
E12 2012 10 31  4  0  0  .401195868440E-03  .851094102564E-10  .000000000000E+00
      .300000000000E+01  .305383585289E+02  .366553307292E-08 -.736260918962E-01
      .142177116975E-05 -.356817432607E-04  .405123235867E-05  .544059337193E+04
      .273600000000E+06  .284501038573E-07  .144095309436E+01 -.477185615694E-08
      .955892944406E+00  .250594360490E+03 -.655788953200E+01 -.583797827067E-08
      .315069443245E-09  .000000000000E+00  .171200000000E+04  .000000000000E+00
      .240000000000E+01  .000000000000E+00  .000000000000E+00  .000000000000E+00
      .277200000000E+06  .000000000000E+00
E11 2012 10 31  6  0  0  .123211456028E-02  .826713358974E-10  .000000000000E+00
      .400000000000E+01  .293269724729E+02  .368068050133E-08 -.148825781406E+01
      .129093352406E-05  .146783737947E-03  .419358391896E-05  .544059645917E+04
      .280800000000E+06  .311441015994E-07  .144093804310E+01  .494097550293E-08
      .955883291302E+00  .248390999521E+03  .132889510181E+01 -.583741345263E-08
      .268003751010E-09  .000000000000E+00  .171200000000E+04  .000000000000E+00
      .240000000000E+01  .000000000000E+00  .000000000000E+00  .000000000000E+00
      .284400000000E+06  .000000000000E+00
E12 2012 10 31  6  0  0  .401808644200E-03  .851170358974E-10  .000000000000E+00
      .400000000000E+01  .311341183992E+02  .365404865176E-08 -.232236752150E+01
      .143898853291E-05  .358077431626E-04  .411372222405E-05  .544059313075E+04
      .280800000000E+06  .380648951124E-07  .144091112541E+01  .221346107731E-07
      .955895268040E+00  .249693196655E+03  .286667539482E+01 -.582329165039E-08
      .307652436791E-09  .000000000000E+00  .171200000000E+04  .000000000000E+00
      .240000000000E+01  .000000000000E+00  .000000000000E+00  .000000000000E+00
      .284400000000E+06  .000000000000E+00
E11 2012 10 31  8  0  0  .123270983432E-02  .826925871795E-10  .000000000000E+00
      .500000000000E+01  .306052603444E+02  .369935656093E-08 -.594292190387E+00
      .140104888772E-05  .146935131888E-03  .405189042624E-05  .544059697487E+04
      .288000000000E+06  .246347862516E-07  .144089604004E+01  .221559401732E-07
      .955885226011E+00  .249519539156E+03  .132756615245E+01 -.583301852242E-08
      .262404672613E-09  .000000000000E+00  .171200000000E+04  .000000000000E+00
      .240000000000E+01  .000000000000E+00  .000000000000E+00  .000000000000E+00
      .291600000000E+06  .000000000000E+00
E12 2012 10 31  8  0  0  .402421500080E-03  .851153435897E-10  .000000000000E+00
      .500000000000E+01  .338470919094E+02  .362320491651E-08 -.141548717058E+01
      .157644178243E-05  .357367971972E-04  .424035405515E-05  .544059419382E+04
      .288000000000E+06 -.262202470063E-07  .144086972979E+01  .330780486590E-07
      .955897480298E+00  .247237278768E+03  .285243268566E+01 -.578409982534E-08
      .258620103379E-09  .000000000000E+00  .171200000000E+04  .000000000000E+00
      .240000000000E+01  .000000000000E+00  .000000000000E+00  .000000000000E+00
      .291600000000E+06  .000000000000E+00
E11 2012 10 31 10  0  0  .123330526244E-02  .826998410257E-10  .000000000000E+00
      .600000000000E+01  .342306869988E+02  .368874634252E-08  .298774688662E+00
      .161274168893E-05  .147827968911E-03  .431970066600E-05  .544059883954E+04
      .295200000000E+06  .129023372736E-07  .144085407849E+01  .362699502062E-07
      .955887104319E+00  .244473259613E+03  .132713543846E+01 -.582707063440E-08
      .263040433145E-09  .000000000000E+00  .171200000000E+04  .000000000000E+00
      .240000000000E+01  .000000000000E+00  .000000000000E+00  .000000000000E+00
      .298800000000E+06  .000000000000E+00
E12 2012 10 31 10  0  0  .403034341120E-03  .851184769231E-10  .000000000000E+00
      .600000000000E+01  .292959391645E+02  .360773056400E-08 -.495908633117E+00
      .132229007133E-05  .364005031625E-04  .459967357713E-05  .544059664536E+04
      .295200000000E+06 -.372694976316E-07  .144082808688E+01  .178098157775E-07
      .955899325859E+00  .240462460411E+03  .282549085901E+01 -.577826715382E-08
      .257657239422E-09  .000000000000E+00  .171200000000E+04  .000000000000E+00
      .240000000000E+01  .000000000000E+00  .000000000000E+00  .000000000000E+00
      .298800000000E+06  .000000000000E+00
E11 2012 10 31 12  0  0  .123390065476E-02  .826898384615E-10  .000000000000E+00
      .700000000000E+01  .306266255862E+02  .366124581797E-08  .118847840563E+01
      .139137329132E-05  .148458113891E-03  .453889244036E-05  .544060041821E+04
      .302400000000E+06 -.630414898818E-07  .144081180924E+01  .266653422106E-07
      .955889366129E+00  .240346696629E+03  .133006693577E+01 -.578342751205E-08
      .320165018199E-09  .000000000000E+00  .171200000000E+04  .000000000000E+00
      .240000000000E+01  .000000000000E+00  .000000000000E+00  .000000000000E+00
      .306000000000E+06  .000000000000E+00
E12 2012 10 31 12  0  0  .403647145480E-03  .850945692308E-10  .000000000000E+00
      .700000000000E+01  .294467437801E+02  .363874710989E-08  .399761595649E+00
      .123402201844E-05  .360878010822E-04  .461179680552E-05  .544059601578E+04
      .302400000000E+06 -.399882780877E-07  .144078650000E+01 -.204003147356E-07
      .955901400611E+00  .237593276156E+03 -.346072846062E+01 -.574912714268E-08
      .272909877763E-09  .000000000000E+00  .171200000000E+04  .000000000000E+00
      .240000000000E+01  .000000000000E+00  .000000000000E+00  .000000000000E+00
      .306000000000E+06  .000000000000E+00
E11 2012 10 31 14  0  0  .123449603816E-02  .826118974359E-10  .000000000000E+00
      .800000000000E+01  .318551183071E+02  .366786032077E-08  .208713351270E+01
      .142009858820E-05  .148589224296E-03  .478742982225E-05  .544059854659E+04
      .309600000000E+06 -.347290230384E-07  .144077027480E+01 -.170817022874E-07
      .955891999910E+00  .234081639024E+03 -.495913843292E+01 -.573444982432E-08
      .333834397576E-09  .000000000000E+00  .171200000000E+04  .000000000000E+00
      .240000000000E+01  .000000000000E+00  .000000000000E+00  .000000000000E+00
      .313200000000E+06  .000000000000E+00
